{
  "norad_id": 50808,
  "name": "STARLINK-3355",
  "history": [
    {
      "epoch": "2026-03-28T16:26:33.335520Z",
      "apogee_km": 540.6606283504289,
      "perigee_km": 538.8307100267748,
      "latitude_deg": 3.246969506291742e-05,
      "longitude_deg": 1.1060169918694422,
      "height_km": 540.5333830208687,
      "semi_major_axis_km": 6917.8826691886015,
      "eccentricity": 0.00013226,
      "inclination_deg": 53.217,
      "raan_deg": 73.8469,
      "arg_perigee_deg": 83.2204,
      "mean_anomaly_deg": 276.8939,
      "mean_motion_rev_day": 15.08839254
    },
    {
      "epoch": "2026-03-29T05:09:38.223072Z",
      "apogee_km": 540.6407608015397,
      "perigee_km": 538.8268950704551,
      "latitude_deg": 1.0239801627550457e-05,
      "longitude_deg": 167.43342495038513,
      "height_km": 540.5580294922523,
      "semi_major_axis_km": 6917.870827935997,
      "eccentricity": 0.0001311,
      "inclination_deg": 53.2172,
      "raan_deg": 71.467,
      "arg_perigee_deg": 85.4746,
      "mean_anomaly_deg": 274.6396,
      "mean_motion_rev_day": 15.08843128
    }
  ]
}